#dP2024 10 16  0  0  0.00000000      97 __u+U IGS20 FIT  IAC
## 2336 259200.00000000   900.00000000 60599 0.0000000000000
+  118   C06C07C08C09C10C11C12C13C14C16C19C20C21C22C23C24C25
+        C26C27C28C29C30C32C33C34C35C36C37C38C39C40C41C42C43
+        C44C45E02E03E04E05E06E07E08E09E10E11E12E13E14E15E18
+        E19E21E24E25E26E27E29E30E31E33E34E36G02G03G04G05G06
+        G07G08G09G10G11G12G13G14G15G16G17G18G19G20G21G22G23
+        G24G25G26G27G28G29G31G32J02J03J04R01R02R03R04R05R07
+        R08R09R11R12R14R15R16R17R18R19R20R21R22R24R25R26  0
++         7  7  7  7  7  6  6  7  6  7  5  5  5  5  6  6  5
++         5  5  6  5  5  6  5  5  5  6  6  6  6  6  6  5  5
++         6  5  4  4  4  4  4  4  4  4  4  4  4  4  4  4  4
++         3  4  4  4  4  4  4  4  5  4  4  4  3  3  3  3  3
++         3  3  3  3  3  3  3  3  3  3  3  3  3  3  3  3  3
++         3  3  3  3  4  3  3  4 10 10 11  7  6  6  6  6  7
++         7  7  6  6  6  6  7  6  6  8  7  6  7  6  7  8  0
%c M  cc GPS ccc cccc cccc cccc cccc ccccc ccccc ccccc ccccc
%c cc cc ccc ccc cccc cccc cccc cccc ccccc ccccc ccccc ccccc
%f  1.2500000  1.025000000  0.00000000000  0.000000000000000
%f  0.0000000  0.000000000  0.00000000000  0.000000000000000
%i    0    0    0    0      0      0      0      0         0
%i    0    0    0    0      0      0      0      0         0
/* INFORMATION & ANALYSIS CENTER (IAC)            FINAL DATA
/* S/V CLOCKS ARE ALIGNED TO GNSS TIME                      
/* G:C1WC2W R:C1PC2P E:C1XC5X C:C2IC6I J:C1CC2S             
/* PCV:IGS20_2317 OL/AL:FES2004  NONE     YN ORB:CoN CLK:CoN
*  2024 10 16 18  0  0.00000000
PC06    329.303444  32326.763328 -26810.736858    331.767363
PC07 -15749.973399  28866.089364  26408.284226   -284.024553
PC08 -13865.942634  39934.283894  -1493.378229   -668.433907
PC09   5355.691623  35071.164939 -21773.223179   -487.155397
PC10  -7249.117831  29301.929422  29648.001810   -232.021506
PC11  21905.827172   -764.817665 -17203.159001    196.906913
PC12  24569.759562  13233.401775   -434.928115   -258.336383
PC13  -8453.977889  40624.397287  -8151.789522     96.372116
PC14  24856.576528 -11518.632517  -5458.679902   -318.536409
PC16  -4156.602031  28916.755926 -29956.685903    177.237946
PC19 -21855.141465  16915.687744  -3777.960013   -949.783510
PC20 -24329.635335   5559.434292  12458.979803   -929.925820
PC21  12216.620151  10414.898771 -22825.554476   -921.520396
PC22  -6660.652914  19338.176292 -18990.185069    153.271401
PC23   1314.237011 -27636.625346   3604.608521   -859.620028
PC24  16306.908632   3918.998927  22291.650131    797.500450
PC25  12158.021583 -16968.446842  18497.831208    534.716957
PC26  11064.530508  21962.833441  13203.690485   -363.684655
PC27 -20223.302583 -17321.930797  -8368.053969    383.263766
PC28  -5574.961784 -18767.079818 -19873.902662    297.616602
PC29 -16096.701771   8812.027287  21022.345332    349.461402
PC30 -26046.055983  -6303.168380   7810.072690      1.505672
PC32 -12152.850045 -10446.975036  22848.359954   -769.045811
PC33  21808.046070 -17030.427107   3667.991742   -957.617785
PC34  25802.812972   4944.540897  -9397.343662    543.777347
PC35   5539.875422  18501.053222  20122.220134    233.622481
PC36 -12315.083349  17173.783296 -18214.756604    203.998009
PC37 -10517.158178 -22257.221274 -13108.876068   -893.402083
PC38 -16993.201907  38117.596276   6676.085813    185.607419
PC39  -7172.961581  25880.531069 -32390.328183    -10.134165
PC40 -22278.603364  22346.184386  27847.392882    -97.070794
PC41   7540.410666 -19604.686786  18423.124131   -898.021498
PC42  23831.482238  -4138.900533 -13908.542951   -495.277233
PC43  16975.304824  -8213.799453 -20571.623721     89.165493
PC44  20769.556298  16588.413038   8447.437438    624.304845
PC45  -1751.696705  27563.770116  -4101.019282   -149.417891
PE02  -6287.839426  26002.350431  12685.771234    167.425171
PE03    299.984070  16952.160738 -24274.882727   -147.304116
PE04 -21518.358907 -12198.177106  16256.425387    -58.758874
PE05 -20595.584895  11614.157606 -17811.740621   4793.442247
PE06 -27661.314735  -6844.117245   8006.821229    -36.941627
PE07  29589.110264    766.183792    583.539687   -147.687838
PE08  20861.475862  12484.280499 -16900.096328   -352.484784
PE09 -29578.002685   -823.351846   -528.290591   -628.296166
PE10 -19558.690451 -15738.749730  15669.991628   -663.598059
PE11 -18854.078468  -5182.450951  22218.346370   1227.482573
PE12 -17348.420441 -22739.104034   7640.378452  -1254.519232
PE13  18928.491680   5830.354061 -21990.561155    -25.815846
PE14   4792.674582  16920.084222  19664.518400    299.784176
PE15  17070.325529  23155.594062  -6968.282727   -133.454334
PE18   8227.409890 -18718.183445 -22322.348292    665.573380
PE19   2000.640774 -16707.185446  24351.395215    785.943112
PE21  18629.601037 -22388.830589   5275.329917   -622.830075
PE24 -20502.732321   5261.308139 -20712.817706  -1046.189628
PE25 -18807.712621  22141.558158  -5684.610178     10.195860
PE26   9488.280402 -15085.578198 -23622.068520   -239.022690
PE27  20460.597979  -5428.531861  20689.967941   -479.490505
PE29  20278.223169 -11869.095434  17983.903053    -38.176536
PE30  10242.694176  14515.500352  23670.855928   -825.780826
PE31 -10208.336299 -14493.446415 -23695.103502    -39.495917
PE33  -4888.277746 -26479.800305 -12267.056958     15.827800
PE34   5274.475607  26599.918445  11888.214035   -140.404608
PE36  -9714.631764  14544.910188  23887.080040   -297.911513
PG02 -20044.559076  -9225.083271  15500.700634   -335.693213
PG03 -16991.217283   3595.943594  19894.451701    572.179457
PG04 -26625.204629   -704.261500    649.725620    462.824826
PG05   9808.502157  12883.477727 -21222.427612   -189.996113
PG06   2489.452701  22396.828121  14040.591921    -43.220827
PG07 -13425.976733   7139.535711 -21255.619329    -27.141233
PG08 -22902.950996  -7139.990590 -11979.286554    386.225332
PG09 -23890.261481   7545.526343  -9005.732759    401.502071
PG10   9673.327587 -24131.505319   4669.924429   -160.817957
PG11  12605.601174  23415.656160    327.463863   -744.386340
PG12  16182.429523   1481.437997  20717.838248   -545.575150
PG13  15915.598852  13445.962483 -16841.062046    681.748903
PG14 -12689.854754  23180.702653    692.618421    518.959525
PG15  23525.149737   4701.794737 -12088.643193    216.491458
PG16  -5350.350951 -17043.651197 -19850.846276   -153.224365
PG17 -11187.702030  13653.542966  20318.841283    593.253366
PG18  12214.249939  -8591.888858 -21931.561013   -658.165862
PG19   -389.708045  15053.594592  21737.985942    551.281510
PG20   3439.396672  22068.276653 -14412.114899    369.613364
PG21 -20273.520176 -14797.153705  10574.655626     99.626028
PG22  -8121.057981  23862.785001   9246.956817    -71.587396
PG23  16233.610916 -18912.479826  -8808.954362    343.012712
PG24  20345.200459  11405.231617  12618.883100   -484.550502
PG25  18093.456822 -12238.495403  14581.170215    499.497702
PG26   1781.428134 -24077.824897 -10792.145447     54.151064
PG27 -13645.069807 -12978.399219 -19189.371446    -34.585772
PG28  -1304.791436 -21585.452188  15406.054575   -448.002009
PG29  25222.490586  -3963.252331  -7595.790433   -570.800742
PG31  -9882.750782 -23889.405200   4901.050202   -223.291368
PG32   8089.629205 -14736.740945  20732.584566   -585.968451
PJ02 -28114.448489  31496.384968   2836.015802     -1.281891
PJ03 -26116.180657  22642.853639  29291.230434     -4.723591
PJ04 -34101.843297  23205.266305  -3786.851981     21.950618
PR01 -20499.618457   1248.307839  15118.852123    101.252704
PR02 -23551.612402   9842.505693  -1026.693888    -25.199902
PR03 -13143.463678  13899.105780 -16870.112327    109.543912
PR04   3878.744045   9954.104130 -23139.973764    259.566358
PR05  18950.264426    999.478071 -17024.275162    139.247975
PR07  12564.470586 -13871.493910  17335.095997     93.063645
PR08  -4344.243229  -9922.727277  23147.542286     -6.406057
PR09  11054.486288 -11729.450514  19819.449034    215.071867
PR11  -1513.293560 -23686.162008  -9359.947966      9.153216
PR12  -9608.049087  -8254.169377 -22114.337310     46.106623
PR14  -6027.154523  23939.328419  -6370.319154     27.094414
PR15   2312.558797  22915.361767  10975.576041     74.843889
PR16   9463.990317   8368.641342  22163.511095     29.994851
PR17   -476.878198  12586.749168  22204.504389    131.330709
PR18  13376.651898  17923.575793  12251.463914    167.192257
PR19  19908.260715  15803.314369  -2220.745397   -295.096678
PR20  15607.440484   1601.194786 -20087.402097   -120.563047
PR21   1391.051002 -11971.507842 -22468.858374   -143.312491
PR22 -13738.472707 -18444.233315 -11007.799111     18.976051
PR24 -15613.638355   -102.515258  20185.665029    -76.262638
PR25    831.371589 -12961.516302 -21938.622318    -91.232975
PR26  -2618.722561 -10588.617349  23073.429152     88.297894
EOF
